{"type": "FeatureCollection", "features": [ {"type": "Feature", "properties": {"norad_id": 66859, "name": "STARLINK-35646", "group": "last-30-days", "lat": -37.93227903542946, "lon": -86.17672169302648, "alt_km": 417.6154632523776, "timestamp": "2025-12-26T20:30:44.701237+00:00", "meta": {"OBJECT_NAME": "STARLINK-35646", "OBJECT_ID": "2025-281M", "EPOCH": "2025-12-26T14:00:04.000032", "MEAN_MOTION": 15.50559945, "ECCENTRICITY": 0.00010255, "INCLINATION": 43.0001, "RA_OF_ASC_NODE": 38.6505, "ARG_OF_PERICENTER": 269.4109, "MEAN_ANOMALY": 258.6975, "EPHEMERIS_TYPE": 0, "CLASSIFICATION_TYPE": "U", "NORAD_CAT_ID": 66859, "ELEMENT_SET_NO": 999, "REV_AT_EPOCH": 361, "BSTAR": 1.6179345e-05, "MEAN_MOTION_DOT": 6.07e-06, "MEAN_MOTION_DDOT": 0}, "tle": {"line1": "1 66859U 25281M   25360.58337963  .00000607  00000+0  16179-4 0  9992", "line2": "2 66859  43.0001  38.6505 0001025 269.4109 258.6975 15.50559945  3610"}}, "geometry": {"type": "Point", "coordinates": [-86.17672169302648, -37.93227903542946]}}, {"type": "Feature", "properties": {"norad_id": 66860, "name": "STARLINK-35987", "group": "last-30-days", "lat": -40.932575977751, "lon": -74.425391837348, "alt_km": 417.50655272096265, "timestamp": "2025-12-26T20:30:44.701248+00:00", "meta": {"OBJECT_NAME": "STARLINK-35987", "OBJECT_ID": "2025-281N", "EPOCH": "2025-12-26T14:00:04.000032", "MEAN_MOTION": 15.50562947, "ECCENTRICITY": 0.00015073, "INCLINATION": 43.0001, "RA_OF_ASC_NODE": 38.6263, "ARG_OF_PERICENTER": 284.5794, "MEAN_ANOMALY": 253.1134, "EPHEMERIS_TYPE": 0, "CLASSIFICATION_TYPE": "U", "NORAD_CAT_ID": 66860, "ELEMENT_SET_NO": 999, "REV_AT_EPOCH": 361, "BSTAR": -5.4739607e-05, "MEAN_MOTION_DOT": -3.55e-05, "MEAN_MOTION_DDOT": 0}, "tle": {"line1": "1 66860U 25281N   25360.58337963 -.00003550  00000+0 -54740-4 0  9992", "line2": "2 66860  43.0001  38.6263 0001507 284.5794 253.1134 15.50562947  3619"}}, "geometry": {"type": "Point", "coordinates": [-74.425391837348, -40.932575977751]}}, {"type": "Feature", "properties": {"norad_id": 66861, "name": "STARLINK-35991", "group": "last-30-days", "lat": -39.273358546128335, "lon": -81.60249947618325, "alt_km": 417.80176778044915, "timestamp": "2025-12-26T20:30:44.701257+00:00", "meta": {"OBJECT_NAME": "STARLINK-35991", "OBJECT_ID": "2025-281P", "EPOCH": "2025-12-26T14:00:04.000032", "MEAN_MOTION": 15.50561003, "ECCENTRICITY": 9.459e-05, "INCLINATION": 43.0002, "RA_OF_ASC_NODE": 38.641, "ARG_OF_PERICENTER": 286.1304, "MEAN_ANOMALY": 245.8083, "EPHEMERIS_TYPE": 0, "CLASSIFICATION_TYPE": "U", "NORAD_CAT_ID": 66861, "ELEMENT_SET_NO": 999, "REV_AT_EPOCH": 361, "BSTAR": 2.9087673e-05, "MEAN_MOTION_DOT": 1.364e-05, "MEAN_MOTION_DDOT": 0}, "tle": {"line1": "1 66861U 25281P   25360.58337963  .00001364  00000+0  29088-4 0  9999", "line2": "2 66861  43.0002  38.6410 0000945 286.1304 245.8083 15.50561003  3618"}}, "geometry": {"type": "Point", "coordinates": [-81.60249947618325, -39.273358546128335]}}, {"type": "Feature", "properties": {"norad_id": 66862, "name": "STARLINK-35974", "group": "last-30-days", "lat": -38.597492577942056, "lon": -84.00516464471981, "alt_km": 417.55692363731123, "timestamp": "2025-12-26T20:30:44.701266+00:00", "meta": {"OBJECT_NAME": "STARLINK-35974", "OBJECT_ID": "2025-281Q", "EPOCH": "2025-12-26T14:00:04.000032", "MEAN_MOTION": 15.50510255, "ECCENTRICITY": 0.00010008, "INCLINATION": 43.0003, "RA_OF_ASC_NODE": 38.6465, "ARG_OF_PERICENTER": 260.2125, "MEAN_ANOMALY": 269.7419, "EPHEMERIS_TYPE": 0, "CLASSIFICATION_TYPE": "U", "NORAD_CAT_ID": 66862, "ELEMENT_SET_NO": 999, "REV_AT_EPOCH": 351, "BSTAR": 0.0023362374, "MEAN_MOTION_DOT": 0.0013883, "MEAN_MOTION_DDOT": 0}, "tle": {"line1": "1 66862U 25281Q   25360.58337963  .00138830  00000+0  23362-2 0  9996", "line2": "2 66862  43.0003  38.6465 0001000 260.2125 269.7419 15.50510255  3517"}}, "geometry": {"type": "Point", "coordinates": [-84.00516464471981, -38.597492577942056]}}, {"type": "Feature", "properties": {"norad_id": 66863, "name": "STARLINK-36134", "group": "last-30-days", "lat": -39.87570760159706, "lon": -79.24884143856444, "alt_km": 417.8142212120256, "timestamp": "2025-12-26T20:30:44.701275+00:00", "meta": {"OBJECT_NAME": "STARLINK-36134", "OBJECT_ID": "2025-281R", "EPOCH": "2025-12-26T14:00:04.000032", "MEAN_MOTION": 15.50560651, "ECCENTRICITY": 0.00010462, "INCLINATION": 43.0002, "RA_OF_ASC_NODE": 38.6364, "ARG_OF_PERICENTER": 292.4898, "MEAN_ANOMALY": 241.3684, "EPHEMERIS_TYPE": 0, "CLASSIFICATION_TYPE": "U", "NORAD_CAT_ID": 66863, "ELEMENT_SET_NO": 999, "REV_AT_EPOCH": 361, "BSTAR": 2.8237747e-05, "MEAN_MOTION_DOT": 1.314e-05, "MEAN_MOTION_DDOT": 0}, "tle": {"line1": "1 66863U 25281R   25360.58337963  .00001314  00000+0  28238-4 0  9992", "line2": "2 66863  43.0002  38.6364 0001046 292.4898 241.3684 15.50560651  3615"}}, "geometry": {"type": "Point", "coordinates": [-79.24884143856444, -39.87570760159706]}}, {"type": "Feature", "properties": {"norad_id": 66864, "name": "STARLINK-36070", "group": "last-30-days", "lat": -40.39892830135408, "lon": -76.99524503816012, "alt_km": 417.59901641829947, "timestamp": "2025-12-26T20:30:44.701284+00:00", "meta": {"OBJECT_NAME": "STARLINK-36070", "OBJECT_ID": "2025-281S", "EPOCH": "2025-12-26T14:00:04.000032", "MEAN_MOTION": 15.505028, "ECCENTRICITY": 0.00010889, "INCLINATION": 43.0004, "RA_OF_ASC_NODE": 38.6317, "ARG_OF_PERICENTER": 259.5125, "MEAN_ANOMALY": 276.169, "EPHEMERIS_TYPE": 0, "CLASSIFICATION_TYPE": "U", "NORAD_CAT_ID": 66864, "ELEMENT_SET_NO": 999, "REV_AT_EPOCH": 364, "BSTAR": 0.0021996476, "MEAN_MOTION_DOT": 0.00130519, "MEAN_MOTION_DDOT": 0}, "tle": {"line1": "1 66864U 25281S   25360.58337963  .00130519  00000+0  21996-2 0  9995", "line2": "2 66864  43.0004  38.6317 0001088 259.5125 276.1690 15.50502800  3647"}}, "geometry": {"type": "Point", "coordinates": [-76.99524503816012, -40.39892830135408]}}, {"type": "Feature", "properties": {"norad_id": 66865, "name": "STARLINK-36117", "group": "last-30-days", "lat": -41.3839070706204, "lon": -71.95869513508435, "alt_km": 417.55540146121984, "timestamp": "2025-12-26T20:30:44.701292+00:00", "meta": {"OBJECT_NAME": "STARLINK-36117", "OBJECT_ID": "2025-281T", "EPOCH": "2025-12-26T14:00:04.000032", "MEAN_MOTION": 15.50534808, "ECCENTRICITY": 0.00013392, "INCLINATION": 43.0003, "RA_OF_ASC_NODE": 38.6228, "ARG_OF_PERICENTER": 287.0502, "MEAN_ANOMALY": 252.5586, "EPHEMERIS_TYPE": 0, "CLASSIFICATION_TYPE": "U", "NORAD_CAT_ID": 66865, "ELEMENT_SET_NO": 999, "REV_AT_EPOCH": 361, "BSTAR": 0.0016998741, "MEAN_MOTION_DOT": 0.00100513, "MEAN_MOTION_DDOT": 0}, "tle": {"line1": "1 66865U 25281T   25360.58337963  .00100513  00000+0  16999-2 0  9994", "line2": "2 66865  43.0003  38.6228 0001339 287.0502 252.5586 15.50534808  3614"}}, "geometry": {"type": "Point", "coordinates": [-71.95869513508435, -41.3839070706204]}}, {"type": "Feature", "properties": {"norad_id": 66866, "name": "STARLINK-36126", "group": "last-30-days", "lat": -41.76234212657392, "lon": -69.5911690372912, "alt_km": 417.67032030813243, "timestamp": "2025-12-26T20:30:44.701301+00:00", "meta": {"OBJECT_NAME": "STARLINK-36126", "OBJECT_ID": "2025-281U", "EPOCH": "2025-12-26T14:00:04.000032", "MEAN_MOTION": 15.50504459, "ECCENTRICITY": 0.00010463, "INCLINATION": 43.0003, "RA_OF_ASC_NODE": 38.6174, "ARG_OF_PERICENTER": 254.0863, "MEAN_ANOMALY": 287.3536, "EPHEMERIS_TYPE": 0, "CLASSIFICATION_TYPE": "U", "NORAD_CAT_ID": 66866, "ELEMENT_SET_NO": 999, "REV_AT_EPOCH": 364, "BSTAR": 0.0022060294, "MEAN_MOTION_DOT": 0.00130913, "MEAN_MOTION_DDOT": 0}, "tle": {"line1": "1 66866U 25281U   25360.58337963  .00130913  00000+0  22060-2 0  9998", "line2": "2 66866  43.0003  38.6174 0001046 254.0863 287.3536 15.50504459  3647"}}, "geometry": {"type": "Point", "coordinates": [-69.5911690372912, -41.76234212657392]}}, {"type": "Feature", "properties": {"norad_id": 66867, "name": "STARLINK-36101", "group": "last-30-days", "lat": -42.12584934892183, "lon": -66.91882241698626, "alt_km": 417.7626829758001, "timestamp": "2025-12-26T20:30:44.701312+00:00", "meta": {"OBJECT_NAME": "STARLINK-36101", "OBJECT_ID": "2025-281V", "EPOCH": "2025-12-26T14:00:04.000032", "MEAN_MOTION": 15.50558079, "ECCENTRICITY": 9.775e-05, "INCLINATION": 43, "RA_OF_ASC_NODE": 38.6122, "ARG_OF_PERICENTER": 253.3383, "MEAN_ANOMALY": 290.1094, "EPHEMERIS_TYPE": 0, "CLASSIFICATION_TYPE": "U", "NORAD_CAT_ID": 66867, "ELEMENT_SET_NO": 999, "REV_AT_EPOCH": 345, "BSTAR": 5.9556052e-05, "MEAN_MOTION_DOT": 3.151e-05, "MEAN_MOTION_DDOT": 0}, "tle": {"line1": "1 66867U 25281V   25360.58337963  .00003151  00000+0  59556-4 0  9994", "line2": "2 66867  43.0000  38.6122 0000977 253.3383 290.1094 15.50558079  3456"}}, "geometry": {"type": "Point", "coordinates": [-66.91882241698626, -42.12584934892183]}}, {"type": "Feature", "properties": {"norad_id": 66868, "name": "STARLINK-36108", "group": "last-30-days", "lat": -42.40601898946191, "lon": -64.4260432180908, "alt_km": 417.6122524239445, "timestamp": "2025-12-26T20:30:44.701321+00:00", "meta": {"OBJECT_NAME": "STARLINK-36108", "OBJECT_ID": "2025-281W", "EPOCH": "2025-12-26T14:00:04.000032", "MEAN_MOTION": 15.50572454, "ECCENTRICITY": 0.00011332, "INCLINATION": 43.0002, "RA_OF_ASC_NODE": 38.6085, "ARG_OF_PERICENTER": 271.4424, "MEAN_ANOMALY": 273.8613, "EPHEMERIS_TYPE": 0, "CLASSIFICATION_TYPE": "U", "NORAD_CAT_ID": 66868, "ELEMENT_SET_NO": 999, "REV_AT_EPOCH": 345, "BSTAR": 0.00037945262, "MEAN_MOTION_DOT": 0.00021976, "MEAN_MOTION_DDOT": 0}, "tle": {"line1": "1 66868U 25281W   25360.58337963  .00021976  00000+0  37945-3 0  9997", "line2": "2 66868  43.0002  38.6085 0001133 271.4424 273.8613 15.50572454  3457"}}, "geometry": {"type": "Point", "coordinates": [-64.4260432180908, -42.40601898946191]}}]}